SDO                     
1 36395U 10005A   26093.00669913 -.00000054  00000+0  00000+0 0  9994
2 36395  34.4952  87.4755 0000578  22.7728 341.7255  1.00274249 59313
INTELSAT 16 (IS-16)     
1 36397U 10006A   26095.80111554  .00000000  00000+0  00000+0 0  9990
2 36397   0.0107 212.7897 0002183 189.8905   3.6210  1.00269775 58921
EWS-G2 (GOES 15)        
1 36411U 10008A   26095.80732296  .00000024  00000+0  00000+0 0  9997
2 36411   1.0872  84.2709 0003425  17.9810  85.7619  1.00271609 58910
ECHOSTAR 14             
1 36499U 10010A   26095.72138229  .00000002  00000+0  00000+0 0  9999
2 36499   0.0201 224.2747 0001801 157.7877 312.7521  1.00272724 45821
SES-1                   
1 36516U 10016A   26095.65367634 -.00000113  00000+0  00000+0 0  9995
2 36516   0.0264 285.1662 0002639  93.2437 309.8600  1.00272896 58300
ASTRA 3B                
1 36581U 10021A   26095.82096227  .00000139  00000+0  00000+0 0  9996
2 36581   1.2823  84.4125 0003614 307.6475 121.0899  1.00273030 58145
COMSATBW-2              
1 36582U 10021B   26095.81888227  .00000090  00000+0  00000+0 0  9991
2 36582   0.0184 231.7010 0002747 157.7609 112.6400  1.00269371 58239
BEIDOU-2 G3             
1 36590U 10024A   26095.90271508 -.00000133  00000+0  00000+0 0  9990
2 36590   4.3450  61.7966 0008624 331.9140 205.1470  1.00272818 58042
BADR-5                  
1 36592U 10025A   26095.82139560  .00000146  00000+0  00000+0 0  9998
2 36592   0.0481 119.3621 0002393 303.3816  93.0673  1.00270034 52499
COMS 1                  
1 36744U 10032A   26095.58326816 -.00000341  00000+0  00000+0 0  9998
2 36744   4.6174  76.3641 0001362 327.0612 128.5884  1.00272136 50360
ARABSAT-5A              
1 36745U 10032B   26095.82234895  .00000155  00000+0  00000+0 0  9993
2 36745   0.0845  53.7823 0003953 351.4529 115.3988  1.00273891 57920
ECHOSTAR 15             
1 36792U 10034A   26095.37405585  .00000001  00000+0  00000+0 0  9993
2 36792   0.0494  73.9790 0002050 312.9210 182.6251  1.00273669 57591
NILESAT 201             
1 36830U 10037A   26095.81489559 -.00000056  00000+0  00000+0 0  9992
2 36830   0.0350 125.5048 0002963 269.3433  85.6232  1.00272438 57651
RASCOM-QAF 1R           
1 36831U 10037B   26095.81688894  .00000020  00000+0  00000+0 0  9996
2 36831   0.0313 114.6566 0006447 255.6826 120.7322  1.00272001 57589
AEHF-1 (USA 214)        
1 36868U 10039A   26095.60828036  .00000152  00000+0  00000+0 0  9995
2 36868   8.0400  68.9859 0004457 307.7978  66.1130  1.00267521 52931
ZHONGXING-6A            
1 37150U 10042A   26095.78395546  .00000062  00000+0  00000+0 0  9998
2 37150   4.0394  78.1136 0004021 265.3635 329.4899  0.99703222 57157
XM-5                    
1 37185U 10053A   26095.65090300 -.00000022  00000+0  00000+0 0  9991
2 37185   0.0677 269.6265 0003959 266.5197 136.9328  1.00272681 56756
