[{"OBJECT_NAME":"SDO","OBJECT_ID":"2010-005A","EPOCH":"2026-04-03T00:09:38.804832","MEAN_MOTION":1.00274249,"ECCENTRICITY":5.789e-5,"INCLINATION":34.4952,"RA_OF_ASC_NODE":87.4755,"ARG_OF_PERICENTER":22.7728,"MEAN_ANOMALY":341.7255,"EPHEMERIS_TYPE":0,"CLASSIFICATION_TYPE":"U","NORAD_CAT_ID":36395,"ELEMENT_SET_NO":999,"REV_AT_EPOCH":5931,"BSTAR":0,"MEAN_MOTION_DOT":-5.4e-7,"MEAN_MOTION_DDOT":0},{"OBJECT_NAME":"INTELSAT 16 (IS-16)","OBJECT_ID":"2010-006A","EPOCH":"2026-04-05T19:13:36.382656","MEAN_MOTION":1.00269775,"ECCENTRICITY":0.0002183,"INCLINATION":0.0107,"RA_OF_ASC_NODE":212.7897,"ARG_OF_PERICENTER":189.8905,"MEAN_ANOMALY":3.621,"EPHEMERIS_TYPE":0,"CLASSIFICATION_TYPE":"U","NORAD_CAT_ID":36397,"ELEMENT_SET_NO":999,"REV_AT_EPOCH":5892,"BSTAR":0,"MEAN_MOTION_DOT":0,"MEAN_MOTION_DDOT":0},{"OBJECT_NAME":"EWS-G2 (GOES 15)","OBJECT_ID":"2010-008A","EPOCH":"2026-04-05T19:22:32.703744","MEAN_MOTION":1.00271609,"ECCENTRICITY":0.0003425,"INCLINATION":1.0872,"RA_OF_ASC_NODE":84.2709,"ARG_OF_PERICENTER":17.981,"MEAN_ANOMALY":85.7619,"EPHEMERIS_TYPE":0,"CLASSIFICATION_TYPE":"U","NORAD_CAT_ID":36411,"ELEMENT_SET_NO":999,"REV_AT_EPOCH":5891,"BSTAR":0,"MEAN_MOTION_DOT":2.4e-7,"MEAN_MOTION_DDOT":0},{"OBJECT_NAME":"ECHOSTAR 14","OBJECT_ID":"2010-010A","EPOCH":"2026-04-05T17:18:47.429856","MEAN_MOTION":1.00272724,"ECCENTRICITY":0.0001801,"INCLINATION":0.0201,"RA_OF_ASC_NODE":224.2747,"ARG_OF_PERICENTER":157.7877,"MEAN_ANOMALY":312.7521,"EPHEMERIS_TYPE":0,"CLASSIFICATION_TYPE":"U","NORAD_CAT_ID":36499,"ELEMENT_SET_NO":999,"REV_AT_EPOCH":4582,"BSTAR":0,"MEAN_MOTION_DOT":2.0e-8,"MEAN_MOTION_DDOT":0},{"OBJECT_NAME":"SES-1","OBJECT_ID":"2010-016A","EPOCH":"2026-04-05T15:41:17.635776","MEAN_MOTION":1.00272896,"ECCENTRICITY":0.0002639,"INCLINATION":0.0264,"RA_OF_ASC_NODE":285.1662,"ARG_OF_PERICENTER":93.2437,"MEAN_ANOMALY":309.86,"EPHEMERIS_TYPE":0,"CLASSIFICATION_TYPE":"U","NORAD_CAT_ID":36516,"ELEMENT_SET_NO":999,"REV_AT_EPOCH":5830,"BSTAR":0,"MEAN_MOTION_DOT":-1.13e-6,"MEAN_MOTION_DDOT":0},{"OBJECT_NAME":"ASTRA 3B","OBJECT_ID":"2010-021A","EPOCH":"2026-04-05T19:42:11.140128","MEAN_MOTION":1.0027303,"ECCENTRICITY":0.0003614,"INCLINATION":1.2823,"RA_OF_ASC_NODE":84.4125,"ARG_OF_PERICENTER":307.6475,"MEAN_ANOMALY":121.0899,"EPHEMERIS_TYPE":0,"CLASSIFICATION_TYPE":"U","NORAD_CAT_ID":36581,"ELEMENT_SET_NO":999,"REV_AT_EPOCH":5814,"BSTAR":0,"MEAN_MOTION_DOT":1.39e-6,"MEAN_MOTION_DDOT":0},{"OBJECT_NAME":"COMSATBW-2","OBJECT_ID":"2010-021B","EPOCH":"2026-04-05T19:39:11.428128","MEAN_MOTION":1.00269371,"ECCENTRICITY":0.0002747,"INCLINATION":0.0184,"RA_OF_ASC_NODE":231.701,"ARG_OF_PERICENTER":157.7609,"MEAN_ANOMALY":112.64,"EPHEMERIS_TYPE":0,"CLASSIFICATION_TYPE":"U","NORAD_CAT_ID":36582,"ELEMENT_SET_NO":999,"REV_AT_EPOCH":5823,"BSTAR":0,"MEAN_MOTION_DOT":9.0e-7,"MEAN_MOTION_DDOT":0},{"OBJECT_NAME":"BEIDOU-2 G3","OBJECT_ID":"2010-024A","EPOCH":"2026-04-05T21:39:54.582912","MEAN_MOTION":1.00272818,"ECCENTRICITY":0.0008624,"INCLINATION":4.345,"RA_OF_ASC_NODE":61.7966,"ARG_OF_PERICENTER":331.914,"MEAN_ANOMALY":205.147,"EPHEMERIS_TYPE":0,"CLASSIFICATION_TYPE":"U","NORAD_CAT_ID":36590,"ELEMENT_SET_NO":999,"REV_AT_EPOCH":5804,"BSTAR":0,"MEAN_MOTION_DOT":-1.33e-6,"MEAN_MOTION_DDOT":0},{"OBJECT_NAME":"BADR-5","OBJECT_ID":"2010-025A","EPOCH":"2026-04-05T19:42:48.579840","MEAN_MOTION":1.00270034,"ECCENTRICITY":0.0002393,"INCLINATION":0.0481,"RA_OF_ASC_NODE":119.3621,"ARG_OF_PERICENTER":303.3816,"MEAN_ANOMALY":93.0673,"EPHEMERIS_TYPE":0,"CLASSIFICATION_TYPE":"U","NORAD_CAT_ID":36592,"ELEMENT_SET_NO":999,"REV_AT_EPOCH":5249,"BSTAR":0,"MEAN_MOTION_DOT":1.46e-6,"MEAN_MOTION_DDOT":0},{"OBJECT_NAME":"COMS 1","OBJECT_ID":"2010-032A","EPOCH":"2026-04-05T13:59:54.369024","MEAN_MOTION":1.00272136,"ECCENTRICITY":0.0001362,"INCLINATION":4.6174,"RA_OF_ASC_NODE":76.3641,"ARG_OF_PERICENTER":327.0612,"MEAN_ANOMALY":128.5884,"EPHEMERIS_TYPE":0,"CLASSIFICATION_TYPE":"U","NORAD_CAT_ID":36744,"ELEMENT_SET_NO":999,"REV_AT_EPOCH":5036,"BSTAR":0,"MEAN_MOTION_DOT":-3.41e-6,"MEAN_MOTION_DDOT":0},{"OBJECT_NAME":"ARABSAT-5A","OBJECT_ID":"2010-032B","EPOCH":"2026-04-05T19:44:10.949280","MEAN_MOTION":1.00273891,"ECCENTRICITY":0.0003953,"INCLINATION":0.0845,"RA_OF_ASC_NODE":53.7823,"ARG_OF_PERICENTER":351.4529,"MEAN_ANOMALY":115.3988,"EPHEMERIS_TYPE":0,"CLASSIFICATION_TYPE":"U","NORAD_CAT_ID":36745,"ELEMENT_SET_NO":999,"REV_AT_EPOCH":5792,"BSTAR":0,"MEAN_MOTION_DOT":1.55e-6,"MEAN_MOTION_DDOT":0},{"OBJECT_NAME":"ECHOSTAR 15","OBJECT_ID":"2010-034A","EPOCH":"2026-04-05T08:58:38.425440","MEAN_MOTION":1.00273669,"ECCENTRICITY":0.00020505,"INCLINATION":0.0494,"RA_OF_ASC_NODE":73.979,"ARG_OF_PERICENTER":312.921,"MEAN_ANOMALY":182.6251,"EPHEMERIS_TYPE":0,"CLASSIFICATION_TYPE":"U","NORAD_CAT_ID":36792,"ELEMENT_SET_NO":999,"REV_AT_EPOCH":5759,"BSTAR":0,"MEAN_MOTION_DOT":1.0e-8,"MEAN_MOTION_DDOT":0},{"OBJECT_NAME":"NILESAT 201","OBJECT_ID":"2010-037A","EPOCH":"2026-04-05T19:33:26.978976","MEAN_MOTION":1.00272438,"ECCENTRICITY":0.0002963,"INCLINATION":0.035,"RA_OF_ASC_NODE":125.5048,"ARG_OF_PERICENTER":269.3433,"MEAN_ANOMALY":85.6232,"EPHEMERIS_TYPE":0,"CLASSIFICATION_TYPE":"U","NORAD_CAT_ID":36830,"ELEMENT_SET_NO":999,"REV_AT_EPOCH":5765,"BSTAR":0,"MEAN_MOTION_DOT":-5.6e-7,"MEAN_MOTION_DDOT":0},{"OBJECT_NAME":"RASCOM-QAF 1R","OBJECT_ID":"2010-037B","EPOCH":"2026-04-05T19:36:19.204416","MEAN_MOTION":1.00272001,"ECCENTRICITY":0.0006447,"INCLINATION":0.0313,"RA_OF_ASC_NODE":114.6566,"ARG_OF_PERICENTER":255.6826,"MEAN_ANOMALY":120.7322,"EPHEMERIS_TYPE":0,"CLASSIFICATION_TYPE":"U","NORAD_CAT_ID":36831,"ELEMENT_SET_NO":999,"REV_AT_EPOCH":5758,"BSTAR":0,"MEAN_MOTION_DOT":2.0e-7,"MEAN_MOTION_DDOT":0},{"OBJECT_NAME":"AEHF-1 (USA 214)","OBJECT_ID":"2010-039A","EPOCH":"2026-04-05T14:35:55.423104","MEAN_MOTION":1.00267521,"ECCENTRICITY":0.0004457,"INCLINATION":8.04,"RA_OF_ASC_NODE":68.9859,"ARG_OF_PERICENTER":307.7978,"MEAN_ANOMALY":66.113,"EPHEMERIS_TYPE":0,"CLASSIFICATION_TYPE":"U","NORAD_CAT_ID":36868,"ELEMENT_SET_NO":999,"REV_AT_EPOCH":5293,"BSTAR":0,"MEAN_MOTION_DOT":1.52e-6,"MEAN_MOTION_DDOT":0},{"OBJECT_NAME":"ZHONGXING-6A","OBJECT_ID":"2010-042A","EPOCH":"2026-04-05T18:48:53.751744","MEAN_MOTION":0.99703222,"ECCENTRICITY":0.0004021,"INCLINATION":4.0394,"RA_OF_ASC_NODE":78.1136,"ARG_OF_PERICENTER":265.3635,"MEAN_ANOMALY":329.4899,"EPHEMERIS_TYPE":0,"CLASSIFICATION_TYPE":"U","NORAD_CAT_ID":37150,"ELEMENT_SET_NO":999,"REV_AT_EPOCH":5715,"BSTAR":0,"MEAN_MOTION_DOT":6.2e-7,"MEAN_MOTION_DDOT":0},{"OBJECT_NAME":"XM-5","OBJECT_ID":"2010-053A","EPOCH":"2026-04-05T15:37:18.019200","MEAN_MOTION":1.00272681,"ECCENTRICITY":0.0003959,"INCLINATION":0.0677,"RA_OF_ASC_NODE":269.6265,"ARG_OF_PERICENTER":266.5197,"MEAN_ANOMALY":136.9328,"EPHEMERIS_TYPE":0,"CLASSIFICATION_TYPE":"U","NORAD_CAT_ID":37185,"ELEMENT_SET_NO":999,"REV_AT_EPOCH":5675,"BSTAR":0,"MEAN_MOTION_DOT":-2.2e-7,"MEAN_MOTION_DDOT":0}]
